COSMOS 1725
1 16493U 86005A   24284.74468115  .00000222  00000-0  21717-3 0  9995
2 16493  82.9285 278.9058 0023732 105.3665  67.5127 13.74829989987755
JILIN-01 GAOFEN 2D
1 49256U 21086A   24285.15966828  .00103802  00000-0  43327-2 0  9994
2 49256  97.5924  37.8025 0017185  45.5999 314.6641 15.23082643167881
COSMOS 2251 DEB
1 37484U 93036BLM 24281.39082354  .00011477  00000-0  37759-2 0  9991
2 37484  73.8243 296.0893 0040921  48.3339  15.3460 14.37797696591696
THORAD AGENA D DEB
1 04737U 70025CL  24284.81871634  .00054935  00000-0  23714-1 0  9997
2 04737  99.0337 241.2518 0032915  59.8144 300.6287 14.23815201759844
YUNHAI 2 2
1 43910U 18112B   24285.18617144  .00004830  00000-0  19764-2 0  9997
2 43910  50.0117 193.2789 0004648 227.4689 132.5834 14.28527496302450
